STARLINK-36498          
1 67318U 26002P   26021.50002314  .00194335  00000+0  12438-2 0  9995
2 67318  42.9985 236.0581 0001841 253.4246  73.1930 15.74955928  3897
STARLINK-36470          
1 67319U 26002Q   26021.50002314  .00116897  00000+0  75506-3 0  9999
2 67319  42.9988 236.0629 0001675 259.8024  64.8864 15.74994235  3890
STARLINK-36500          
1 67320U 26002R   26021.50002314  .00117012  00000+0  75579-3 0  9991
2 67320  42.9989 236.0537 0001660 260.0169  68.5067 15.74994302  3890
STARLINK-36462          
1 67321U 26002S   26021.50002314  .00138991  00000+0  89526-3 0  9998
2 67321  42.9987 236.0451 0001721 259.5201  72.8458 15.74983199  3830
STARLINK-36434          
1 67322U 26002T   26021.50002314  .00137220  00000+0  88412-3 0  9996
2 67322  42.9988 236.0494 0001694 259.3909  71.0579 15.74982172  3836
STARLINK-36497          
1 67323U 26002U   26021.50002314  .00207690  00000+0  13274-2 0  9999
2 67323  42.9987 236.0393 0001770 255.3075  78.9797 15.74947772  3890
STARLINK-36471          
1 67324U 26002V   26021.50002314  .00097770  00000+0  63345-3 0  9991
2 67324  42.9987 236.0297 0001754 261.9918  76.1187 15.74994278  3835
STARLINK-36473          
1 67325U 26002W   26021.50002314  .00196544  00000+0  12578-2 0  9992
2 67325  42.9988 236.0349 0001735 250.3016  85.9018 15.74951648  3986
STARLINK-36430          
1 67326U 26002X   26021.50002314  .00105873  00000+0  68524-3 0  9991
2 67326  42.9989 236.0189 0001690 260.7326  81.2175 15.74987426  3985
STARLINK-36501          
1 67327U 26002Y   26021.50002314  .00110368  00000+0  71382-3 0  9993
2 67327  42.9988 236.0243 0001716 260.9246  79.1052 15.74987679  3832
STARLINK-36489          
1 67328U 26002Z   26021.50002314  .00087554  00000+0  56810-3 0  9993
2 67328  42.9989 236.0157 0001666 260.9001  82.9632 15.75001342  3988
STARLINK-36496          
1 67329U 26002AA  26021.50002314  .00122109  00000+0  78833-3 0  9999
2 67329  42.9988 236.0043 0001693 261.4764  86.2193 15.74987631  3818
