CCSDS_OMM_VERS = 2.0
CREATION_DATE  = 
ORIGINATOR     = 

OBJECT_NAME    = STARLINK-36498
OBJECT_ID      = 2026-002P
CENTER_NAME    = EARTH
REF_FRAME      = TEME
TIME_SYSTEM    = UTC
MEAN_ELEMENT_THEORY = SGP/SGP4

EPOCH          = 2026-01-21T12:00:01.999296
MEAN_MOTION    = 15.74955928
ECCENTRICITY   = .0001841
INCLINATION    = 42.9985
RA_OF_ASC_NODE = 236.0581
ARG_OF_PERICENTER = 253.4246
MEAN_ANOMALY   = 73.1930

EPHEMERIS_TYPE = 0
CLASSIFICATION_TYPE = U
NORAD_CAT_ID   = 67318
ELEMENT_SET_NO = 999
REV_AT_EPOCH   = 389
BSTAR          = .12438E-2
MEAN_MOTION_DOT = .194335E-2
MEAN_MOTION_DDOT = 0

CCSDS_OMM_VERS = 2.0
CREATION_DATE  = 
ORIGINATOR     = 

OBJECT_NAME    = STARLINK-36470
OBJECT_ID      = 2026-002Q
CENTER_NAME    = EARTH
REF_FRAME      = TEME
TIME_SYSTEM    = UTC
MEAN_ELEMENT_THEORY = SGP/SGP4

EPOCH          = 2026-01-21T12:00:01.999296
MEAN_MOTION    = 15.74994235
ECCENTRICITY   = .0001675
INCLINATION    = 42.9988
RA_OF_ASC_NODE = 236.0629
ARG_OF_PERICENTER = 259.8024
MEAN_ANOMALY   = 64.8864

EPHEMERIS_TYPE = 0
CLASSIFICATION_TYPE = U
NORAD_CAT_ID   = 67319
ELEMENT_SET_NO = 999
REV_AT_EPOCH   = 389
BSTAR          = .75506E-3
MEAN_MOTION_DOT = .116897E-2
MEAN_MOTION_DDOT = 0

CCSDS_OMM_VERS = 2.0
CREATION_DATE  = 
ORIGINATOR     = 

OBJECT_NAME    = STARLINK-36500
OBJECT_ID      = 2026-002R
CENTER_NAME    = EARTH
REF_FRAME      = TEME
TIME_SYSTEM    = UTC
MEAN_ELEMENT_THEORY = SGP/SGP4

EPOCH          = 2026-01-21T12:00:01.999296
MEAN_MOTION    = 15.74994302
ECCENTRICITY   = .000166
INCLINATION    = 42.9989
RA_OF_ASC_NODE = 236.0537
ARG_OF_PERICENTER = 260.0169
MEAN_ANOMALY   = 68.5067

EPHEMERIS_TYPE = 0
CLASSIFICATION_TYPE = U
NORAD_CAT_ID   = 67320
ELEMENT_SET_NO = 999
REV_AT_EPOCH   = 389
BSTAR          = .75579E-3
MEAN_MOTION_DOT = .117012E-2
MEAN_MOTION_DDOT = 0

CCSDS_OMM_VERS = 2.0
CREATION_DATE  = 
ORIGINATOR     = 

OBJECT_NAME    = STARLINK-36462
OBJECT_ID      = 2026-002S
CENTER_NAME    = EARTH
REF_FRAME      = TEME
TIME_SYSTEM    = UTC
MEAN_ELEMENT_THEORY = SGP/SGP4

EPOCH          = 2026-01-21T12:00:01.999296
MEAN_MOTION    = 15.74983199
ECCENTRICITY   = .0001721
INCLINATION    = 42.9987
RA_OF_ASC_NODE = 236.0451
ARG_OF_PERICENTER = 259.5201
MEAN_ANOMALY   = 72.8458

EPHEMERIS_TYPE = 0
CLASSIFICATION_TYPE = U
NORAD_CAT_ID   = 67321
ELEMENT_SET_NO = 999
REV_AT_EPOCH   = 383
BSTAR          = .89526E-3
MEAN_MOTION_DOT = .138991E-2
MEAN_MOTION_DDOT = 0

CCSDS_OMM_VERS = 2.0
CREATION_DATE  = 
ORIGINATOR     = 

OBJECT_NAME    = STARLINK-36434
OBJECT_ID      = 2026-002T
CENTER_NAME    = EARTH
REF_FRAME      = TEME
TIME_SYSTEM    = UTC
MEAN_ELEMENT_THEORY = SGP/SGP4

EPOCH          = 2026-01-21T12:00:01.999296
MEAN_MOTION    = 15.74982172
ECCENTRICITY   = .0001694
INCLINATION    = 42.9988
RA_OF_ASC_NODE = 236.0494
ARG_OF_PERICENTER = 259.3909
MEAN_ANOMALY   = 71.0579

EPHEMERIS_TYPE = 0
CLASSIFICATION_TYPE = U
NORAD_CAT_ID   = 67322
ELEMENT_SET_NO = 999
REV_AT_EPOCH   = 383
BSTAR          = .88412E-3
MEAN_MOTION_DOT = .13722E-2
MEAN_MOTION_DDOT = 0

CCSDS_OMM_VERS = 2.0
CREATION_DATE  = 
ORIGINATOR     = 

OBJECT_NAME    = STARLINK-36497
OBJECT_ID      = 2026-002U
CENTER_NAME    = EARTH
REF_FRAME      = TEME
TIME_SYSTEM    = UTC
MEAN_ELEMENT_THEORY = SGP/SGP4

EPOCH          = 2026-01-21T12:00:01.999296
MEAN_MOTION    = 15.74947772
ECCENTRICITY   = .000177
INCLINATION    = 42.9987
RA_OF_ASC_NODE = 236.0393
ARG_OF_PERICENTER = 255.3075
MEAN_ANOMALY   = 78.9797

EPHEMERIS_TYPE = 0
CLASSIFICATION_TYPE = U
NORAD_CAT_ID   = 67323
ELEMENT_SET_NO = 999
REV_AT_EPOCH   = 389
BSTAR          = .13274E-2
MEAN_MOTION_DOT = .20769E-2
MEAN_MOTION_DDOT = 0

CCSDS_OMM_VERS = 2.0
CREATION_DATE  = 
ORIGINATOR     = 

OBJECT_NAME    = STARLINK-36471
OBJECT_ID      = 2026-002V
CENTER_NAME    = EARTH
REF_FRAME      = TEME
TIME_SYSTEM    = UTC
MEAN_ELEMENT_THEORY = SGP/SGP4

EPOCH          = 2026-01-21T12:00:01.999296
MEAN_MOTION    = 15.74994278
ECCENTRICITY   = .0001754
INCLINATION    = 42.9987
RA_OF_ASC_NODE = 236.0297
ARG_OF_PERICENTER = 261.9918
MEAN_ANOMALY   = 76.1187

EPHEMERIS_TYPE = 0
CLASSIFICATION_TYPE = U
NORAD_CAT_ID   = 67324
ELEMENT_SET_NO = 999
REV_AT_EPOCH   = 383
BSTAR          = .63345E-3
MEAN_MOTION_DOT = .9777E-3
MEAN_MOTION_DDOT = 0

CCSDS_OMM_VERS = 2.0
CREATION_DATE  = 
ORIGINATOR     = 

OBJECT_NAME    = STARLINK-36473
OBJECT_ID      = 2026-002W
CENTER_NAME    = EARTH
REF_FRAME      = TEME
TIME_SYSTEM    = UTC
MEAN_ELEMENT_THEORY = SGP/SGP4

EPOCH          = 2026-01-21T12:00:01.999296
MEAN_MOTION    = 15.74951648
ECCENTRICITY   = .0001735
INCLINATION    = 42.9988
RA_OF_ASC_NODE = 236.0349
ARG_OF_PERICENTER = 250.3016
MEAN_ANOMALY   = 85.9018

EPHEMERIS_TYPE = 0
CLASSIFICATION_TYPE = U
NORAD_CAT_ID   = 67325
ELEMENT_SET_NO = 999
REV_AT_EPOCH   = 398
BSTAR          = .12578E-2
MEAN_MOTION_DOT = .196544E-2
MEAN_MOTION_DDOT = 0

CCSDS_OMM_VERS = 2.0
CREATION_DATE  = 
ORIGINATOR     = 

OBJECT_NAME    = STARLINK-36430
OBJECT_ID      = 2026-002X
CENTER_NAME    = EARTH
REF_FRAME      = TEME
TIME_SYSTEM    = UTC
MEAN_ELEMENT_THEORY = SGP/SGP4

EPOCH          = 2026-01-21T12:00:01.999296
MEAN_MOTION    = 15.74987426
ECCENTRICITY   = .000169
INCLINATION    = 42.9989
RA_OF_ASC_NODE = 236.0189
ARG_OF_PERICENTER = 260.7326
MEAN_ANOMALY   = 81.2175

EPHEMERIS_TYPE = 0
CLASSIFICATION_TYPE = U
NORAD_CAT_ID   = 67326
ELEMENT_SET_NO = 999
REV_AT_EPOCH   = 398
BSTAR          = .68524E-3
MEAN_MOTION_DOT = .105873E-2
MEAN_MOTION_DDOT = 0

CCSDS_OMM_VERS = 2.0
CREATION_DATE  = 
ORIGINATOR     = 

OBJECT_NAME    = STARLINK-36501
OBJECT_ID      = 2026-002Y
CENTER_NAME    = EARTH
REF_FRAME      = TEME
TIME_SYSTEM    = UTC
MEAN_ELEMENT_THEORY = SGP/SGP4

EPOCH          = 2026-01-21T12:00:01.999296
MEAN_MOTION    = 15.74987679
ECCENTRICITY   = .0001716
INCLINATION    = 42.9988
RA_OF_ASC_NODE = 236.0243
ARG_OF_PERICENTER = 260.9246
MEAN_ANOMALY   = 79.1052

EPHEMERIS_TYPE = 0
CLASSIFICATION_TYPE = U
NORAD_CAT_ID   = 67327
ELEMENT_SET_NO = 999
REV_AT_EPOCH   = 383
BSTAR          = .71382E-3
MEAN_MOTION_DOT = .110368E-2
MEAN_MOTION_DDOT = 0

CCSDS_OMM_VERS = 2.0
CREATION_DATE  = 
ORIGINATOR     = 

OBJECT_NAME    = STARLINK-36489
OBJECT_ID      = 2026-002Z
CENTER_NAME    = EARTH
REF_FRAME      = TEME
TIME_SYSTEM    = UTC
MEAN_ELEMENT_THEORY = SGP/SGP4

EPOCH          = 2026-01-21T12:00:01.999296
MEAN_MOTION    = 15.75001342
ECCENTRICITY   = .0001666
INCLINATION    = 42.9989
RA_OF_ASC_NODE = 236.0157
ARG_OF_PERICENTER = 260.9001
MEAN_ANOMALY   = 82.9632

EPHEMERIS_TYPE = 0
CLASSIFICATION_TYPE = U
NORAD_CAT_ID   = 67328
ELEMENT_SET_NO = 999
REV_AT_EPOCH   = 398
BSTAR          = .5681E-3
MEAN_MOTION_DOT = .87554E-3
MEAN_MOTION_DDOT = 0

CCSDS_OMM_VERS = 2.0
CREATION_DATE  = 
ORIGINATOR     = 

OBJECT_NAME    = STARLINK-36496
OBJECT_ID      = 2026-002AA
CENTER_NAME    = EARTH
REF_FRAME      = TEME
TIME_SYSTEM    = UTC
MEAN_ELEMENT_THEORY = SGP/SGP4

EPOCH          = 2026-01-21T12:00:01.999296
MEAN_MOTION    = 15.74987631
ECCENTRICITY   = .0001693
INCLINATION    = 42.9988
RA_OF_ASC_NODE = 236.0043
ARG_OF_PERICENTER = 261.4764
MEAN_ANOMALY   = 86.2193

EPHEMERIS_TYPE = 0
CLASSIFICATION_TYPE = U
NORAD_CAT_ID   = 67329
ELEMENT_SET_NO = 999
REV_AT_EPOCH   = 381
BSTAR          = .78833E-3
MEAN_MOTION_DOT = .122109E-2
MEAN_MOTION_DDOT = 0

